satname,norad_id,inclination_deg,eccentricity,mean_motion_rev_per_day,perigee_km,apogee_km,l1,l2
STARLINK-1316,45415,53.1555,0.0006759,15.36759296,451.0808978154937,460.3188785209195,1 45415U 20019BH  26140.75526633  .00022628  00000+0  62936-3 0  9999,2 45415  53.1555 152.8484 0006759  14.0110 346.1080 15.36759296341059
STARLINK-1286,45417,53.045,0.0001375,15.6180106,381.52498263587586,383.38414531596845,1 45417U 20019BK  26141.00002315  .00271673  00000+0  29829-2 0  9995,2 45417  53.0450 141.6683 0001375 112.4876 100.3827 15.61801060  5952
STARLINK-1308,45419,53.0465,0.0008267,15.63427165,372.18089673993563,383.35110676303157,1 45419U 20019BM  26140.30605874  .00066182  00000+0  70294-3 0  9998,2 45419  53.0465 164.7050 0008267 346.7603  13.3193 15.63427165340831
STARLINK-1329,45531,53.0438,0.0005033,15.70658421,353.62429678394255,360.4038998795231,1 45531U 20025A   26140.57229310  .00049778  00000+0  39707-3 0  9992,2 45531  53.0438  88.0825 0005033  75.3322 284.8253 15.70658421336718
STARLINK-1338,45532,53.0449,0.000461,15.65908302,367.51657835391325,373.7389394616266,1 45532U 20025B   26140.85749161  .00035112  00000+0  34222-3 0  9999,2 45532  53.0449  92.6432 0004610  50.1671 309.9748 15.65908302336677
STARLINK-1350,45535,53.0721,0.0001585,15.37814263,451.49144333782624,453.6567787600279,1 45535U 20025E   26140.77283194  .00010693  00000+0  29353-3 0  9998,2 45535  53.0721  54.1490 0001585  72.8164 287.3012 15.37814263337244
STARLINK-1362,45538,53.1573,0.0003772,15.3522022,457.6870131897067,462.84590475915684,1 45538U 20025H   26140.65191650 -.00110679  00000+0 -32262-2 0  9992,2 45538  53.1573 125.5307 0003772  71.2279 288.9133 15.35220220336212
STARLINK-1368,45540,53.1573,0.0004852,15.35517954,456.0648970450857,462.7000259305132,1 45540U 20025K   26140.66565575  .00016412  00000+0  47848-3 0  9992,2 45540  53.1573 125.8379 0004852  54.6272 305.5184 15.35517954336209
STARLINK-1371,45542,53.0456,0.0006888,15.58658675,386.87516966222756,396.2010741101385,1 45542U 20025M   26140.62595305  .00056171  00000+0  71884-3 0  9997,2 45542  53.0456 102.5985 0006888  54.7203 305.4452 15.58658675336513
STARLINK-1372,45543,53.1577,0.0004377,15.36056817,454.79117545158715,460.7753400452193,1 45543U 20025N   26140.24001659  .00037840  00000+0  10674-2 0  9991,2 45543  53.1577 127.4008 0004377  47.5078 312.6294 15.36056817335241
STARLINK-1373,45544,53.0456,0.0004364,15.67537796,363.00682431116275,368.89306339575705,1 45544U 20025P   26140.06797731  .00043172  00000+0  39255-3 0  9997,2 45544  53.0456 102.0111 0004364  27.2551 332.8693 15.67537796336475
STARLINK-1327,45555,53.0413,0.0005308,15.65306844,368.7732628151889,375.93958663487683,1 45555U 20025AA  26140.97503400  .00034176  00000+0  34130-3 0  9998,2 45555  53.0413  74.3919 0005308  33.8388 326.2964 15.65306844336932
STARLINK-1356,45564,53.0463,0.000385,15.55225404,398.887327620826,404.1076461757384,1 45564U 20025AK  26140.15864950  .00117971  00000+0  16955-2 0  9997,2 45564  53.0463  90.7332 0003850  39.9578 320.1715 15.55225404336631
STARLINK-1357,45565,53.0463,0.0007711,15.67190517,361.74506995836873,372.14733727498606,1 45565U 20025AL  26140.92589299  .00038392  00000+0  35447-3 0  9990,2 45565  53.0463  44.7858 0007711  69.6414 290.5429 15.67190517337354
STARLINK-1361,45567,53.0441,0.0001965,15.59066934,389.0262516089024,391.68626946029235,1 45567U 20025AN  26140.92966431  .00061052  00000+0  76900-3 0  9997,2 45567  53.0441  85.3445 0001965  42.5967 317.5197 15.59066934336787
STARLINK-1363,45568,53.0305,0.0004213,16.062579,254.33334326606746,259.9242182129183,1 45568U 20025AP  26141.04559481  .00387341  81278-4  51092-3 0  9993,2 45568  53.0305  29.9035 0004213 232.9367 127.1280 16.06257900337556
STARLINK-1366,45569,53.0325,0.0002112,15.99557492,274.2402923457348,277.05085010382027,1 45569U 20025AQ  26141.00002315  .00262545  39797-4  51858-3 0  9996,2 45569  53.0325  32.3513 0002112 234.4071 168.9712 15.99557492  5996
STARLINK-1376,45570,53.1587,0.0005717,15.36416716,452.8082075256025,460.6231780945609,1 45570U 20025AR  26140.61138142  .00025846  00000+0  72510-3 0  9991,2 45570  53.1587 102.1052 0005717  50.1227 310.0278 15.36416716336531
STARLINK-1320,45572,53.0445,0.0003969,15.81369959,323.9045003366409,329.2266932579778,1 45572U 20025AT  26140.00563943  .00100609  00000+0  49562-3 0  9999,2 45572  53.0445 350.5117 0003969 245.0900 114.9710 15.81369959338042
STARLINK-1321,45573,53.0437,0.0005516,15.60023214,383.8579864564872,391.3219364403576,1 45573U 20025AU  26140.94999768  .00032465  00000+0  39848-3 0  9991,2 45573  53.0437  69.2668 0005516  67.2882 292.8712 15.60023214336709
STARLINK-1331,45578,53.0471,0.0006314,15.59857039,383.7982813698509,392.3426481563538,1 45578U 20025AZ  26140.90744653  .00061265  00000+0  74834-3 0  9997,2 45578  53.0471  76.3470 0006314  48.0616 312.0934 15.59857039336913
STARLINK-1333,45580,53.158,0.0003286,15.33474113,463.2077512007536,467.705360885785,1 45580U 20025BB  26140.62338199  .00036720  00000+0  11249-2 0  9991,2 45580  53.1580 103.1704 0003286  69.4588 290.6767 15.33474113336529
STARLINK-1335,45581,53.1559,0.0004682,15.34923079,457.94682702161026,464.35113441395424,1 45581U 20025BC  26140.21584818  .00031555  00000+0  92543-3 0  9996,2 45581  53.1559 102.0066 0004682  63.4836 296.6646 15.34923079336495
STARLINK-1337,45582,53.0473,0.0007338,15.71643701,349.2587245718232,359.13910075724925,1 45582U 20025BD  26140.96232904  .00045512  00000+0  34869-3 0  9990,2 45582  53.0473  66.9353 0007338  55.6260 304.5450 15.71643701337037
STARLINK-1347,45586,53.0398,0.0004871,15.66422214,365.86498350962665,372.4381920518417,1 45586U 20025BH  26140.95332321  .00036898  00000+0  35194-3 0  9996,2 45586  53.0398  36.7570 0004871  83.7551 276.4019 15.66422214337459
STARLINK-1364,45589,53.0455,0.0005423,15.60805502,381.6612545077487,388.9969098204647,1 45589U 20025BL  26140.95628193  .00030718  00000+0  36638-3 0  9993,2 45589  53.0455  73.3773 0005423  30.5699 329.5629 15.60805502336944
STARLINK-1365,45590,53.0469,0.0005432,15.55951982,395.7051953177943,403.0682971156848,1 45590U 20025BM  26140.90523951  .00050085  00000+0  71058-3 0  9990,2 45590  53.0469 106.5144 0005432  28.6056 331.5251 15.55951982336499
STARLINK-1443,45660,53.1352,0.0004554,15.30858759,470.12871805296527,476.36896027527655,1 45660U 20035D   26140.84834972  .00018348  00000+0  61731-3 0  9993,2 45660  53.1352  90.5376 0004554  45.9539 314.1836 15.30858759329792
STARLINK-1446,45663,53.0227,0.0004402,15.46387481,424.3085271374721,430.30003764248795,1 45663U 20035G   26140.95708435  .00014906  00000+0  30468-3 0  9991,2 45663  53.0227  15.2034 0004402 118.3377 241.8073 15.46387481330840
STARLINK-1448,45665,53.0451,0.0007333,15.65813325,365.95159183299165,375.84973046683535,1 45665U 20035J   26140.92040001  .00037925  00000+0  37020-3 0  9995,2 45665  53.0451  60.9143 0007333  47.2312 312.9319 15.65813325330197
STARLINK-1451,45668,53.0509,0.000272,15.133144,524.2226941259651,527.9785994058057,1 45668U 20035M   26140.86998728  .00019459  00000+0  10937-2 0  9998,2 45668  53.0509  99.2775 0002720  62.7134 297.4135 15.13314400329665
STARLINK-1452,45669,53.027,5.15e-05,15.55439568,400.52604124286063,401.22427949537905,1 45669U 20035N   26140.94294977  .00047263  00000+0  68425-3 0  9993,2 45669  53.0270  34.6502 0000515 155.5541 204.5493 15.55439568330572
STARLINK-1453,45670,53.0414,0.0002885,15.66279197,367.6156003598635,371.5090228626632,1 45670U 20035P   26140.95639798  .00043207  00000+0  41339-3 0  9999,2 45670  53.0414  21.0851 0002885 129.3563 230.7708 15.66279197330657
STARLINK-1454,45671,53.0442,0.0003167,15.64602822,372.24275666198537,376.51980174002983,1 45671U 20035Q   26140.97225418  .00038151  00000+0  39108-3 0  9995,2 45671  53.0442  61.6987 0003167  34.7588 325.3632 15.64602822330187
STARLINK-1456,45673,53.0417,0.0006717,15.62640581,375.493487879995,384.57241339168013,1 45673U 20035S   26140.79732725  .00068980  00000+0  75543-3 0  9997,2 45673  53.0417  56.9679 0006717  82.4438 277.7338 15.62640581330257
STARLINK-1457,45674,53.0266,0.0009331,16.37772688,165.62249250572495,177.845862096804,1 45674U 20035T   26140.82063804  .06002104  12300-4  55973-3 0  9995,2 45674  53.0266  12.7022 0009331 270.7739  89.2237 16.37772688330838
STARLINK-1458,45675,53.0475,0.0005479,15.53585566,402.55015842490866,409.98450869362296,1 45675U 20035U   26140.97270030  .00051026  00000+0  78907-3 0  9995,2 45675  53.0475  69.5216 0005479  42.4704 317.6728 15.53585566330052
STARLINK-1460,45676,53.158,0.0004212,15.33286022,463.1334646875557,468.8989793617893,1 45676U 20035V   26140.85765263  .00022522  00000+0  69973-3 0  9992,2 45676  53.1580  89.2427 0004212  79.6827 280.4650 15.33286022329777
STARLINK-1392,45677,53.155,0.0003594,15.3645055,454.15894277871394,459.07176276988775,1 45677U 20035W   26140.84813783  .00027633  00000+0  77367-3 0  9997,2 45677  53.1550  88.3406 0003594  85.2215 274.9199 15.36450550329822
STARLINK-1394,45679,53.0419,0.0007447,15.62280343,376.0382151441627,386.10538072780946,1 45679U 20035Y   26140.47659057  .00039926  00000+0  44739-3 0  9995,2 45679  53.0419  48.7787 0007447  88.6959 271.4907 15.62280343330339
STARLINK-1402,45685,53.0416,0.0006973,15.5557789,395.74656957334173,405.20001949009566,1 45685U 20035AE  26140.97672283  .00049007  00000+0  70490-3 0  9997,2 45685  53.0416  36.2141 0006973 111.1486 249.0270 15.55577890330566
STARLINK-1404,45686,53.1578,0.0005191,15.423257,435.7084212810587,442.78622968777563,1 45686U 20035AF  26140.97714747  .00036982  00000+0  85019-3 0  9991,2 45686  53.1578  70.1418 0005191  96.3377 263.8221 15.42325700330090
STARLINK-1413,45689,53.1568,0.0003117,15.33306934,463.8206894180512,468.0872957428255,1 45689U 20035AJ  26140.96144422  .00022925  00000+0  71159-3 0  9992,2 45689  53.1568  73.4005 0003117  99.4425 260.6930 15.33306934329968
